{"type": "FeatureCollection", "features": [ {"type": "Feature", "properties": {"norad_id": 66583, "name": "STARLINK-35941", "group": "last-30-days", "lat": 36.47258054910555, "lon": -158.47835067522277, "alt_km": 400.1209080858771, "timestamp": "2025-12-20T18:51:30.444831+00:00", "meta": {"OBJECT_NAME": "STARLINK-35941", "OBJECT_ID": "2025-268AC", "EPOCH": "2025-12-20T05:59:10.873824", "MEAN_MOTION": 15.5129279, "ECCENTRICITY": 0.0012733, "INCLINATION": 43.0013, "RA_OF_ASC_NODE": 77.1533, "ARG_OF_PERICENTER": 76.6546, "MEAN_ANOMALY": 283.5733, "EPHEMERIS_TYPE": 0, "CLASSIFICATION_TYPE": "U", "NORAD_CAT_ID": 66583, "ELEMENT_SET_NO": 999, "REV_AT_EPOCH": 579, "BSTAR": 0.0016923, "MEAN_MOTION_DOT": 0.00103155, "MEAN_MOTION_DDOT": 0}, "tle": {"line1": "1 66583U 25268AC  25354.24943141  .00103155  00000+0  16923-2 0  9995", "line2": "2 66583  43.0013  77.1533 0012733  76.6546 283.5733 15.51292790  5790"}}, "geometry": {"type": "Point", "coordinates": [-158.47835067522277, 36.47258054910555]}}, {"type": "Feature", "properties": {"norad_id": 66584, "name": "STARLINK-35939", "group": "last-30-days", "lat": 36.50369056503283, "lon": -158.57233303891206, "alt_km": 407.79060161011876, "timestamp": "2025-12-20T18:51:30.444842+00:00", "meta": {"OBJECT_NAME": "STARLINK-35939", "OBJECT_ID": "2025-268AD", "EPOCH": "2025-12-19T14:31:27.869088", "MEAN_MOTION": 15.50751867, "ECCENTRICITY": 0.0002615, "INCLINATION": 42.9992, "RA_OF_ASC_NODE": 80.9182, "ARG_OF_PERICENTER": 187.8218, "MEAN_ANOMALY": 172.2602, "EPHEMERIS_TYPE": 0, "CLASSIFICATION_TYPE": "U", "NORAD_CAT_ID": 66584, "ELEMENT_SET_NO": 999, "REV_AT_EPOCH": 569, "BSTAR": 0.0012867, "MEAN_MOTION_DOT": 0.00076356, "MEAN_MOTION_DDOT": 0}, "tle": {"line1": "1 66584U 25268AD  25353.60518367  .00076356  00000+0  12867-2 0  9998", "line2": "2 66584  42.9992  80.9182 0002615 187.8218 172.2602 15.50751867  5698"}}, "geometry": {"type": "Point", "coordinates": [-158.57233303891206, 36.50369056503283]}}, {"type": "Feature", "properties": {"norad_id": 66585, "name": "STARLINK-35963", "group": "last-30-days", "lat": 28.930554376422172, "lon": -142.40562230722585, "alt_km": 394.5920806308932, "timestamp": "2025-12-20T18:51:30.444852+00:00", "meta": {"OBJECT_NAME": "STARLINK-35963", "OBJECT_ID": "2025-268AE", "EPOCH": "2025-12-20T14:00:03.000384", "MEAN_MOTION": 15.56189581, "ECCENTRICITY": 0.00015318, "INCLINATION": 43.0007, "RA_OF_ASC_NODE": 75.1686, "ARG_OF_PERICENTER": 266.8516, "MEAN_ANOMALY": 172.603, "EPHEMERIS_TYPE": 0, "CLASSIFICATION_TYPE": "U", "NORAD_CAT_ID": 66585, "ELEMENT_SET_NO": 999, "REV_AT_EPOCH": 592, "BSTAR": 0.0025586396, "MEAN_MOTION_DOT": 0.00188146, "MEAN_MOTION_DDOT": 0}, "tle": {"line1": "1 66585U 25268AE  25354.58336806  .00188146  00000+0  25586-2 0  9996", "line2": "2 66585  43.0007  75.1686 0001531 266.8516 172.6030 15.56189581  5927"}}, "geometry": {"type": "Point", "coordinates": [-142.40562230722585, 28.930554376422172]}}, {"type": "Feature", "properties": {"norad_id": 66586, "name": "TJS-21", "group": "last-30-days", "lat": 49.739839298635175, "lon": -161.98953147896069, "alt_km": 27825.733600282703, "timestamp": "2025-12-20T18:51:30.444865+00:00", "meta": {"OBJECT_NAME": "TJS-21", "OBJECT_ID": "2025-269A", "EPOCH": "2025-12-18T16:58:10.473888", "MEAN_MOTION": 2.00580748, "ECCENTRICITY": 0.6806869, "INCLINATION": 63.2733, "RA_OF_ASC_NODE": 161.7218, "ARG_OF_PERICENTER": 269.7428, "MEAN_ANOMALY": 18.6663, "EPHEMERIS_TYPE": 0, "CLASSIFICATION_TYPE": "U", "NORAD_CAT_ID": 66586, "ELEMENT_SET_NO": 999, "REV_AT_EPOCH": 55, "BSTAR": -0.059507049, "MEAN_MOTION_DOT": 1.084e-05, "MEAN_MOTION_DDOT": 0}, "tle": {"line1": "1 66586U 25269A   25352.70706567  .00001084  00000+0 -59507-1 0  9990", "line2": "2 66586  63.2733 161.7218 6806869 269.7428  18.6663  2.00580748   558"}}, "geometry": {"type": "Point", "coordinates": [-161.98953147896069, 49.739839298635175]}}, {"type": "Feature", "properties": {"norad_id": 66587, "name": "CZ-3B R/B", "group": "last-30-days", "lat": 32.73774318128429, "lon": -161.26839213300696, "alt_km": 38704.3876229596, "timestamp": "2025-12-20T18:51:30.444880+00:00", "meta": {"OBJECT_NAME": "CZ-3B R/B", "OBJECT_ID": "2025-269B", "EPOCH": "2025-12-18T04:21:45.908640", "MEAN_MOTION": 2.0405465, "ECCENTRICITY": 0.75166459, "INCLINATION": 51.3412, "RA_OF_ASC_NODE": 168.3764, "ARG_OF_PERICENTER": 229.6756, "MEAN_ANOMALY": 36.1575, "EPHEMERIS_TYPE": 0, "CLASSIFICATION_TYPE": "U", "NORAD_CAT_ID": 66587, "ELEMENT_SET_NO": 999, "REV_AT_EPOCH": 56, "BSTAR": 0.00058948144, "MEAN_MOTION_DOT": 0.0008861, "MEAN_MOTION_DDOT": -1.447425e-06}, "tle": {"line1": "1 66587U 25269B   25352.18178135  .00088610 -14474-5  58948-3 0  9993", "line2": "2 66587  51.3412 168.3764 7516645 229.6756  36.1575  2.04054650   560"}}, "geometry": {"type": "Point", "coordinates": [-161.26839213300696, 32.73774318128429]}}, {"type": "Feature", "properties": {"norad_id": 66588, "name": "STARLINK-36076", "group": "last-30-days", "lat": 32.81647166904681, "lon": -169.7908987129653, "alt_km": 439.6372937688857, "timestamp": "2025-12-20T18:51:30.444892+00:00", "meta": {"OBJECT_NAME": "STARLINK-36076", "OBJECT_ID": "2025-270A", "EPOCH": "2025-12-20T10:51:06.427872", "MEAN_MOTION": 15.40725228, "ECCENTRICITY": 0.0001738, "INCLINATION": 42.9989, "RA_OF_ASC_NODE": 148.3397, "ARG_OF_PERICENTER": 266.7837, "MEAN_ANOMALY": 93.2821, "EPHEMERIS_TYPE": 0, "CLASSIFICATION_TYPE": "U", "NORAD_CAT_ID": 66588, "ELEMENT_SET_NO": 999, "REV_AT_EPOCH": 553, "BSTAR": 0.00073508724, "MEAN_MOTION_DOT": 0.00030552, "MEAN_MOTION_DDOT": 0}, "tle": {"line1": "1 66588U 25270A   25354.45215773  .00030552  00000+0  73509-3 0  9993", "line2": "2 66588  42.9989 148.3397 0001738 266.7837  93.2821 15.40725228  5533"}}, "geometry": {"type": "Point", "coordinates": [-169.7908987129653, 32.81647166904681]}}, {"type": "Feature", "properties": {"norad_id": 66589, "name": "STARLINK-35447", "group": "last-30-days", "lat": 18.502007172134025, "lon": -54.869392792171446, "alt_km": 441.7058165465869, "timestamp": "2025-12-20T18:51:30.444902+00:00", "meta": {"OBJECT_NAME": "STARLINK-35447", "OBJECT_ID": "2025-270B", "EPOCH": "2025-12-20T13:32:00.344832", "MEAN_MOTION": 15.40728123, "ECCENTRICITY": 0.00015088, "INCLINATION": 42.9997, "RA_OF_ASC_NODE": 147.4551, "ARG_OF_PERICENTER": 283.3552, "MEAN_ANOMALY": 76.7136, "EPHEMERIS_TYPE": 0, "CLASSIFICATION_TYPE": "U", "NORAD_CAT_ID": 66589, "ELEMENT_SET_NO": 999, "REV_AT_EPOCH": 566, "BSTAR": 0.00048417387, "MEAN_MOTION_DOT": 0.00019993, "MEAN_MOTION_DDOT": 0}, "tle": {"line1": "1 66589U 25270B   25354.56389288  .00019993  00000+0  48417-3 0  9995", "line2": "2 66589  42.9997 147.4551 0001508 283.3552  76.7136 15.40728123  5665"}}, "geometry": {"type": "Point", "coordinates": [-54.869392792171446, 18.502007172134025]}}, {"type": "Feature", "properties": {"norad_id": 66590, "name": "STARLINK-35429", "group": "last-30-days", "lat": -35.870742659237536, "lon": 16.85917754701478, "alt_km": 446.24902388012106, "timestamp": "2025-12-20T18:51:30.444913+00:00", "meta": {"OBJECT_NAME": "STARLINK-35429", "OBJECT_ID": "2025-270C", "EPOCH": "2025-12-20T14:00:03.000384", "MEAN_MOTION": 15.40701655, "ECCENTRICITY": 0.00015817, "INCLINATION": 43.0002, "RA_OF_ASC_NODE": 147.1322, "ARG_OF_PERICENTER": 276.7058, "MEAN_ANOMALY": 278.5636, "EPHEMERIS_TYPE": 0, "CLASSIFICATION_TYPE": "U", "NORAD_CAT_ID": 66590, "ELEMENT_SET_NO": 999, "REV_AT_EPOCH": 576, "BSTAR": -4.1668703e-05, "MEAN_MOTION_DOT": -2.044e-05, "MEAN_MOTION_DDOT": 0}, "tle": {"line1": "1 66590U 25270C   25354.58336806 -.00002044  00000+0 -41669-4 0  9991", "line2": "2 66590  43.0002 147.1322 0001581 276.7058 278.5636 15.40701655  5766"}}, "geometry": {"type": "Point", "coordinates": [16.85917754701478, -35.870742659237536]}}, {"type": "Feature", "properties": {"norad_id": 66591, "name": "STARLINK-36058", "group": "last-30-days", "lat": -22.324845725738772, "lon": 119.60886556687979, "alt_km": 443.6001226201506, "timestamp": "2025-12-20T18:51:30.444926+00:00", "meta": {"OBJECT_NAME": "STARLINK-36058", "OBJECT_ID": "2025-270D", "EPOCH": "2025-12-20T14:00:03.000384", "MEAN_MOTION": 15.42326684, "ECCENTRICITY": 8.735e-05, "INCLINATION": 42.9995, "RA_OF_ASC_NODE": 146.9244, "ARG_OF_PERICENTER": 298.7233, "MEAN_ANOMALY": 342.7029, "EPHEMERIS_TYPE": 0, "CLASSIFICATION_TYPE": "U", "NORAD_CAT_ID": 66591, "ELEMENT_SET_NO": 999, "REV_AT_EPOCH": 566, "BSTAR": -0.05641924, "MEAN_MOTION_DOT": -0.0223072, "MEAN_MOTION_DDOT": 0}, "tle": {"line1": "1 66591U 25270D   25354.58336806 -.02230720  00000+0 -56419-1 0  9994", "line2": "2 66591  42.9995 146.9244 0000873 298.7233 342.7029 15.42326684  5664"}}, "geometry": {"type": "Point", "coordinates": [119.60886556687979, -22.324845725738772]}}, {"type": "Feature", "properties": {"norad_id": 66592, "name": "STARLINK-36066", "group": "last-30-days", "lat": 41.65767475005839, "lon": -106.40678151436883, "alt_km": 437.9604376502366, "timestamp": "2025-12-20T18:51:30.444936+00:00", "meta": {"OBJECT_NAME": "STARLINK-36066", "OBJECT_ID": "2025-270E", "EPOCH": "2025-12-19T03:31:08.236704", "MEAN_MOTION": 15.40718174, "ECCENTRICITY": 0.00012951, "INCLINATION": 42.9987, "RA_OF_ASC_NODE": 155.7395, "ARG_OF_PERICENTER": 272.062, "MEAN_ANOMALY": 88.0088, "EPHEMERIS_TYPE": 0, "CLASSIFICATION_TYPE": "U", "NORAD_CAT_ID": 66592, "ELEMENT_SET_NO": 999, "REV_AT_EPOCH": 523, "BSTAR": 0.00069686524, "MEAN_MOTION_DOT": 0.00028934, "MEAN_MOTION_DDOT": 0}, "tle": {"line1": "1 66592U 25270E   25353.14662311  .00028934  00000+0  69687-3 0  9990", "line2": "2 66592  42.9987 155.7395 0001295 272.0620  88.0088 15.40718174  5230"}}, "geometry": {"type": "Point", "coordinates": [-106.40678151436883, 41.65767475005839]}}]}